COMMENT,ORIGINATOR,NORAD_CAT_ID,OBJECT_NAME,OBJECT_TYPE,CLASSIFICATION_TYPE,INTLDES,EPOCH,EPOCH_MICROSECONDS,MEAN_MOTION,ECCENTRICITY,INCLINATION,RA_OF_ASC_NODE,ARG_OF_PERICENTER,MEAN_ANOMALY,EPHEMERIS_TYPE,ELEMENT_SET_NO,REV_AT_EPOCH,BSTAR,MEAN_MOTION_DOT,MEAN_MOTION_DDOT,FILE,TLE_LINE0,TLE_LINE1,TLE_LINE2,OBJECT_ID,OBJECT_NUMBER,SEMIMAJOR_AXIS,PERIOD,APOGEE,PERIGEE,DECAYED
"GENERATED VIA SPACETRACK.ORG API","18 SPCS","48897","SPACEBEE-109","PAYLOAD","U","21059U","2022-09-21 08:15:08","932032","15.1762188","0.0009892","97.568","33.833","129.2679","230.9433","0","999","6847","0.00050303","0.00010067","0","3579379","0 SPACEBEE-109","1 48897U 21059U   22264.34385338  .00010067  00000-0  50303-3 0  9994","2 48897  97.5680  33.8330 0009892 129.2679 230.9433 15.17621880 68475","2021-059U","48897","6891.167","94.885","519.849","506.215","0"
"GENERATED VIA SPACETRACK.ORG API","18 SPCS","48897","SPACEBEE-109","PAYLOAD","U","21059U","2022-09-21 14:34:55","873632","15.17625385","0.0009885","97.568","34.0966","128.54","231.6721","0","999","6851","0.00046137","0.00009228","0","3579752","0 SPACEBEE-109","1 48897U 21059U   22264.60759113  .00009228  00000-0  46137-3 0  9996","2 48897  97.5680  34.0966 0009885 128.5400 231.6721 15.17625385 68516","2021-059U","48897","6891.157","94.885","519.834","506.210","0"
"GENERATED VIA SPACETRACK.ORG API","18 SPCS","48897","SPACEBEE-109","PAYLOAD","U","21059U","2022-09-22 22:13:49","450656","15.1765102","0.0009789","97.5682","35.4144","124.8726","235.3429","0","999","6871","0.00051695","0.00010357","0","3580751","0 SPACEBEE-109","1 48897U 21059U   22265.92626679  .00010357  00000-0  51695-3 0  9992","2 48897  97.5682  35.4144 0009789 124.8726 235.3429 15.17651020 68717","2021-059U","48897","6891.079","94.883","519.690","506.198","0"
"GENERATED VIA SPACETRACK.ORG API","18 SPCS","48897","SPACEBEE-109","PAYLOAD","U","21059U","2022-09-23 07:43:29","167104","15.17659327","0.0009808","97.5684","35.8098","123.5641","236.653","0","999","6877","0.00054949","0.00011017","0","3581351","0 SPACEBEE-109","1 48897U 21059U   22266.32186536  .00011017  00000-0  54949-3 0  9999","2 48897  97.5684  35.8098 0009808 123.5641 236.6530 15.17659327 68776","2021-059U","48897","6891.054","94.883","519.678","506.160","0"
"GENERATED VIA SPACETRACK.ORG API","18 SPCS","48897","SPACEBEE-109","PAYLOAD","U","21059U","2022-09-23 20:23:01","809600","15.17672069","0.0009826","97.5687","36.337","121.8152","238.4039","0","999","6885","0.00062974","0.00012643","0","3581681","0 SPACEBEE-109","1 48897U 21059U   22266.84932650  .00012643  00000-0  62974-3 0  9995","2 48897  97.5687  36.3370 0009826 121.8152 238.4039 15.17672069 68857","2021-059U","48897","6891.015","94.882","519.651","506.109","0"
"GENERATED VIA SPACETRACK.ORG API","18 SPCS","48897","SPACEBEE-109","PAYLOAD","U","21059U","2022-09-24 07:27:37","541088","15.1768286","0.0009846","97.5687","36.798","120.3284","239.8925","0","999","6892","0.00061771","0.00012404","0","3582040","0 SPACEBEE-109","1 48897U 21059U   22267.31085117  .00012404  00000-0  61771-3 0  9994","2 48897  97.5687  36.7980 0009846 120.3284 239.8925 15.17682860 68927","2021-059U","48897","6890.983","94.881","519.632","506.063","0"
"GENERATED VIA SPACETRACK.ORG API","18 SPCS","48897","SPACEBEE-109","PAYLOAD","U","21059U","2022-09-24 07:27:37","541088","15.1768286","0.0009846","97.5687","36.798","120.3284","239.8925","0","999","6892","0.00061771","0.00012404","0","3582188","0 SPACEBEE-109","1 48897U 21059U   22267.31085117  .00012404  00000-0  61771-3 0  9994","2 48897  97.5687  36.7980 0009846 120.3284 239.8925 15.17682860 68927","2021-059U","48897","6890.983","94.881","519.632","506.063","0"
"GENERATED VIA SPACETRACK.ORG API","18 SPCS","48897","SPACEBEE-109","PAYLOAD","U","21059U","2022-09-24 20:07:09","382656","15.17698708","0.0009872","97.569","37.3252","118.6387","241.584","0","999","6900","0.00070003","0.00014075","0","3582616","0 SPACEBEE-109","1 48897U 21059U   22267.83830304  .00014075  00000-0  70003-3 0  9991","2 48897  97.5690  37.3252 0009872 118.6387 241.5840 15.17698708 69007","2021-059U","48897","6890.935","94.880","519.602","505.997","0"
"GENERATED VIA SPACETRACK.ORG API","18 SPCS","48897","SPACEBEE-109","PAYLOAD","U","21059U","2022-09-25 07:11:44","397024","15.1771002","0.0009898","97.5694","37.7866","116.9771","243.2474","0","999","6907","0.00063939","0.00012852","0","3583351","0 SPACEBEE-109","1 48897U 21059U   22268.29981941  .00012852  00000-0  63939-3 0  9997","2 48897  97.5694  37.7866 0009898 116.9771 243.2474 15.17710020 69073","2021-059U","48897","6890.900","94.880","519.586","505.945","0"
"GENERATED VIA SPACETRACK.ORG API","18 SPCS","48897","SPACEBEE-109","PAYLOAD","U","21059U","2022-09-25 21:26:11","856192","15.17723515","0.0009912","97.5697","38.3798","114.9628","245.2636","0","999","6916","0.00058245","0.00011704","0","3583993","0 SPACEBEE-109","1 48897U 21059U   22268.89319278  .00011704  00000-0  58245-3 0  9990","2 48897  97.5697  38.3798 0009912 114.9628 245.2636 15.17723515 69168","2021-059U","48897","6890.860","94.879","519.555","505.894","0"
"GENERATED VIA SPACETRACK.ORG API","18 SPCS","48897","SPACEBEE-109","PAYLOAD","U","21059U","2022-09-26 08:30:46","226016","15.17732269","0.0009934","97.5698","38.8412","113.5085","246.7193","0","999","6923","0.00048755","0.00009786","0","3584345","0 SPACEBEE-109","1 48897U 21059U   22269.35470169  .00009786  00000-0  48755-3 0  9991","2 48897  97.5698  38.8412 0009934 113.5085 246.7193 15.17732269 69231","2021-059U","48897","6890.833","94.878","519.543","505.853","0"
"GENERATED VIA SPACETRACK.ORG API","18 SPCS","48897","SPACEBEE-109","PAYLOAD","U","21059U","2022-09-26 14:50:31","468128","15.17737378","0.0009964","97.5698","39.1048","113.0381","247.1904","0","999","6927","0.00049208","0.00009879","0","3584555","0 SPACEBEE-109","1 48897U 21059U   22269.61841977  .00009879  00000-0  49208-3 0  9996","2 48897  97.5698  39.1048 0009964 113.0381 247.1904 15.17737378 69272","2021-059U","48897","6890.818","94.878","519.549","505.817","0"
"GENERATED VIA SPACETRACK.ORG API","18 SPCS","48897","SPACEBEE-109","PAYLOAD","U","21059U","2022-09-27 08:14:50","413920","15.17758421","0.0009939","97.57","39.8299","110.8139","249.416","0","999","6938","0.0006886","0.00013868","0","3584927","0 SPACEBEE-109","1 48897U 21059U   22270.34363905  .00013868  00000-0  68860-3 0  9996","2 48897  97.5700  39.8299 0009939 110.8139 249.4160 15.17758421 69382","2021-059U","48897","6890.754","94.877","519.468","505.770","0"
"GENERATED VIA SPACETRACK.ORG API","18 SPCS","48897","SPACEBEE-109","PAYLOAD","U","21059U","2022-09-27 08:14:50","413920","15.17758421","0.0009939","97.57","39.8299","110.8139","249.416","0","999","6938","0.0006886","0.00013868","0","3585092","0 SPACEBEE-109","1 48897U 21059U   22270.34363905  .00013868  00000-0  68860-3 0  9996","2 48897  97.5700  39.8299 0009939 110.8139 249.4160 15.17758421 69382","2021-059U","48897","6890.754","94.877","519.468","505.770","0"
"GENERATED VIA SPACETRACK.ORG API","18 SPCS","48897","SPACEBEE-109","PAYLOAD","U","21059U","2022-09-28 14:18:37","539648","15.17789411","0.0009928","97.57","41.0825","106.966","253.2662","0","999","6957","0.00058989","0.00011878","0","3586039","0 SPACEBEE-109","1 48897U 21059U   22271.59626782  .00011878  00000-0  58989-3 0  9999","2 48897  97.5700  41.0825 0009928 106.9660 253.2662 15.17789411 69579","2021-059U","48897","6890.660","94.875","519.366","505.684","0"
"GENERATED VIA SPACETRACK.ORG API","18 SPCS","48897","SPACEBEE-109","PAYLOAD","U","21059U","2022-09-28 14:18:37","539648","15.17789411","0.0009928","97.57","41.0825","106.966","253.2662","0","999","6957","0.00058989","0.00011878","0","3586151","0 SPACEBEE-109","1 48897U 21059U   22271.59626782  .00011878  00000-0  58989-3 0  9999","2 48897  97.5700  41.0825 0009928 106.9660 253.2662 15.17789411 69579","2021-059U","48897","6890.660","94.875","519.366","505.684","0"
"GENERATED VIA SPACETRACK.ORG API","18 SPCS","48897","SPACEBEE-109","PAYLOAD","U","21059U","2022-09-28 20:38:21","911712","15.17796762","0.0009902","97.57","41.3461","106.1603","254.0721","0","999","6961","0.0006037","0.0001216","0","3586258","0 SPACEBEE-109","1 48897U 21059U   22271.85997583  .00012160  00000-0  60370-3 0  9990","2 48897  97.5700  41.3461 0009902 106.1603 254.0721 15.17796762 69616","2021-059U","48897","6890.638","94.874","519.326","505.680","0"
"GENERATED VIA SPACETRACK.ORG API","18 SPCS","48897","SPACEBEE-109","PAYLOAD","U","21059U","2022-09-29 07:42:54","290016","15.17808606","0.0009843","97.57","41.8075","104.7207","255.5118","0","999","6968","0.00060247","0.00012139","0","3586894","0 SPACEBEE-109","1 48897U 21059U   22272.32146169  .00012139  00000-0  60247-3 0  9998","2 48897  97.5700  41.8075 0009843 104.7207 255.5118 15.17808606 69684","2021-059U","48897","6890.602","94.874","519.249","505.685","0"
"GENERATED VIA SPACETRACK.ORG API","18 SPCS","48897","SPACEBEE-109","PAYLOAD","U","21059U","2022-09-30 02:42:06","216480","15.17830357","0.0009832","97.57","42.5986","102.2326","258.0009","0","999","6980","0.0006656","0.00013429","0","3587229","0 SPACEBEE-109","1 48897U 21059U   22273.11257195  .00013429  00000-0  66560-3 0  9995","2 48897  97.5700  42.5986 0009832 102.2326 258.0009 15.17830357 69805","2021-059U","48897","6890.536","94.872","519.176","505.626","0"
"GENERATED VIA SPACETRACK.ORG API","18 SPCS","48897","SPACEBEE-109","PAYLOAD","U","21059U","2022-09-30 07:26:54","39552","15.17836496","0.0009827","97.5701","42.7965","101.5604","258.6733","0","999","6983","0.00067937","0.00013711","0","3587752","0 SPACEBEE-109","1 48897U 21059U   22273.31034768  .00013711  00000-0  67937-3 0  9999","2 48897  97.5701  42.7965 0009827 101.5604 258.6733 15.17836496 69833","2021-059U","48897","6890.518","94.872","519.154","505.611","0"
